[{"OBJECT_NAME":"OBJECT AD","OBJECT_ID":"2023-085AD","EPOCH":"2026-03-09T21:41:29.115744","MEAN_MOTION":15.31779154,"ECCENTRICITY":0.00101154,"INCLINATION":97.4841,"RA_OF_ASC_NODE":180.2223,"ARG_OF_PERICENTER":77.5993,"MEAN_ANOMALY":282.638,"EPHEMERIS_TYPE":0,"CLASSIFICATION_TYPE":"U","NORAD_CAT_ID":57031,"ELEMENT_SET_NO":999,"REV_AT_EPOCH":15156,"BSTAR":0.00068352515,"MEAN_MOTION_DOT":0.00020961,"MEAN_MOTION_DDOT":0},{"OBJECT_NAME":"STARLINK-34650","OBJECT_ID":"2025-245AA","EPOCH":"2026-03-09T21:50:18.530016","MEAN_MOTION":15.30222178,"ECCENTRICITY":0.00018197,"INCLINATION":53.1617,"RA_OF_ASC_NODE":282.6206,"ARG_OF_PERICENTER":169.1554,"MEAN_ANOMALY":190.9487,"EPHEMERIS_TYPE":0,"CLASSIFICATION_TYPE":"U","NORAD_CAT_ID":66258,"ELEMENT_SET_NO":999,"REV_AT_EPOCH":2129,"BSTAR":0.0011960245,"MEAN_MOTION_DOT":0.00035257,"MEAN_MOTION_DDOT":0}]
